TEVEL2-6                
1 63215U 25052F   26068.64958975  .00021046  00000+0  70909-3 0  9996
2 63215  97.4016 325.0381 0004769  95.6604 264.5181 15.30760889 54861
STARLINK-34531          
1 64750U 25144AC  26068.62734710 -.00034690  00000+0 -11666-2 0  9995
2 64750  53.1607 181.2366 0002417  48.4635 311.6573 15.30140586 39705
